[{"OBJECT_NAME":"STARLINK-30894","OBJECT_ID":"2023-178B","EPOCH":"2026-03-09T05:48:55.749024","MEAN_MOTION":15.30184445,"ECCENTRICITY":0.00011491,"INCLINATION":53.1621,"RA_OF_ASC_NODE":3.1013,"ARG_OF_PERICENTER":109.9071,"MEAN_ANOMALY":250.2054,"EPHEMERIS_TYPE":0,"CLASSIFICATION_TYPE":"U","NORAD_CAT_ID":58375,"ELEMENT_SET_NO":999,"REV_AT_EPOCH":12975,"BSTAR":3.8033874e-5,"MEAN_MOTION_DOT":7.67e-6,"MEAN_MOTION_DDOT":0},{"OBJECT_NAME":"TANSTAAFL-2","OBJECT_ID":"2024-247B","EPOCH":"2026-03-08T04:58:51.015360","MEAN_MOTION":15.28016845,"ECCENTRICITY":0.00030723,"INCLINATION":44.988,"RA_OF_ASC_NODE":125.0934,"ARG_OF_PERICENTER":298.8909,"MEAN_ANOMALY":61.1666,"EPHEMERIS_TYPE":0,"CLASSIFICATION_TYPE":"U","NORAD_CAT_ID":62378,"ELEMENT_SET_NO":999,"REV_AT_EPOCH":6750,"BSTAR":0.00050871624,"MEAN_MOTION_DOT":0.00013897,"MEAN_MOTION_DDOT":0}]
